[{"OBJECT_NAME":"ONEWEB-0240","OBJECT_ID":"2021-045U","EPOCH":"2025-08-29T06:35:54.241440","MEAN_MOTION":13.15547097,"ECCENTRICITY":0.00015262,"INCLINATION":87.9063,"RA_OF_ASC_NODE":317.396,"ARG_OF_PERICENTER":97.4599,"MEAN_ANOMALY":262.6705,"EPHEMERIS_TYPE":0,"CLASSIFICATION_TYPE":"U","NORAD_CAT_ID":48785,"ELEMENT_SET_NO":999,"REV_AT_EPOCH":20602,"BSTAR":0.00050859684,"MEAN_MOTION_DOT":2.04e-6,"MEAN_MOTION_DDOT":0},{"OBJECT_NAME":"ONEWEB-0246","OBJECT_ID":"2021-045V","EPOCH":"2025-08-29T06:27:55.692576","MEAN_MOTION":13.15547819,"ECCENTRICITY":0.00018926,"INCLINATION":87.9066,"RA_OF_ASC_NODE":317.4095,"ARG_OF_PERICENTER":93.0179,"MEAN_ANOMALY":267.1168,"EPHEMERIS_TYPE":0,"CLASSIFICATION_TYPE":"U","NORAD_CAT_ID":48786,"ELEMENT_SET_NO":999,"REV_AT_EPOCH":20589,"BSTAR":0.00038944076,"MEAN_MOTION_DOT":1.59e-6,"MEAN_MOTION_DDOT":0},{"OBJECT_NAME":"ONEWEB-0210","OBJECT_ID":"2021-045W","EPOCH":"2025-08-29T05:51:25.110432","MEAN_MOTION":13.1554763,"ECCENTRICITY":0.00019074,"INCLINATION":87.9065,"RA_OF_ASC_NODE":317.414,"ARG_OF_PERICENTER":76.862,"MEAN_ANOMALY":283.2723,"EPHEMERIS_TYPE":0,"CLASSIFICATION_TYPE":"U","NORAD_CAT_ID":48787,"ELEMENT_SET_NO":999,"REV_AT_EPOCH":20593,"BSTAR":-0.00012263814,"MEAN_MOTION_DOT":-3.3e-7,"MEAN_MOTION_DDOT":0},{"OBJECT_NAME":"ONEWEB-0214","OBJECT_ID":"2021-045X","EPOCH":"2025-08-29T06:03:57.098880","MEAN_MOTION":13.1555076,"ECCENTRICITY":0.00020052,"INCLINATION":87.9061,"RA_OF_ASC_NODE":317.4001,"ARG_OF_PERICENTER":84.6699,"MEAN_ANOMALY":275.466,"EPHEMERIS_TYPE":0,"CLASSIFICATION_TYPE":"U","NORAD_CAT_ID":48788,"ELEMENT_SET_NO":999,"REV_AT_EPOCH":20590,"BSTAR":-0.00039160818,"MEAN_MOTION_DOT":-1.35e-6,"MEAN_MOTION_DDOT":0},{"OBJECT_NAME":"ONEWEB-0221","OBJECT_ID":"2021-045Y","EPOCH":"2025-08-29T06:14:14.800992","MEAN_MOTION":13.15549324,"ECCENTRICITY":0.00017414,"INCLINATION":87.9054,"RA_OF_ASC_NODE":317.4256,"ARG_OF_PERICENTER":92.8178,"MEAN_ANOMALY":267.3152,"EPHEMERIS_TYPE":0,"CLASSIFICATION_TYPE":"U","NORAD_CAT_ID":48789,"ELEMENT_SET_NO":999,"REV_AT_EPOCH":20599,"BSTAR":0.00013210268,"MEAN_MOTION_DOT":6.3e-7,"MEAN_MOTION_DDOT":0},{"OBJECT_NAME":"ONEWEB-0213","OBJECT_ID":"2021-045Z","EPOCH":"2025-08-29T05:58:16.106592","MEAN_MOTION":13.15547836,"ECCENTRICITY":0.00017812,"INCLINATION":87.9055,"RA_OF_ASC_NODE":317.4361,"ARG_OF_PERICENTER":90.0551,"MEAN_ANOMALY":270.0783,"EPHEMERIS_TYPE":0,"CLASSIFICATION_TYPE":"U","NORAD_CAT_ID":48790,"ELEMENT_SET_NO":999,"REV_AT_EPOCH":20605,"BSTAR":-8.9677734e-5,"MEAN_MOTION_DOT":-2.1e-7,"MEAN_MOTION_DDOT":0},{"OBJECT_NAME":"ONEWEB-0212","OBJECT_ID":"2021-045AA","EPOCH":"2025-08-29T05:25:10.719264","MEAN_MOTION":13.15548109,"ECCENTRICITY":0.00018812,"INCLINATION":87.9061,"RA_OF_ASC_NODE":317.4227,"ARG_OF_PERICENTER":99.1527,"MEAN_ANOMALY":260.9816,"EPHEMERIS_TYPE":0,"CLASSIFICATION_TYPE":"U","NORAD_CAT_ID":48791,"ELEMENT_SET_NO":999,"REV_AT_EPOCH":20604,"BSTAR":0.00024474549,"MEAN_MOTION_DOT":1.05e-6,"MEAN_MOTION_DDOT":0},{"OBJECT_NAME":"ONEWEB-0227","OBJECT_ID":"2021-045AB","EPOCH":"2025-08-29T05:24:02.108160","MEAN_MOTION":13.15547923,"ECCENTRICITY":0.00017661,"INCLINATION":87.9054,"RA_OF_ASC_NODE":317.4422,"ARG_OF_PERICENTER":95.4501,"MEAN_ANOMALY":264.6831,"EPHEMERIS_TYPE":0,"CLASSIFICATION_TYPE":"U","NORAD_CAT_ID":48792,"ELEMENT_SET_NO":999,"REV_AT_EPOCH":20599,"BSTAR":0.00010200697,"MEAN_MOTION_DOT":5.1e-7,"MEAN_MOTION_DDOT":0},{"OBJECT_NAME":"ONEWEB-0226","OBJECT_ID":"2021-045AC","EPOCH":"2025-08-29T07:04:25.967136","MEAN_MOTION":13.15547747,"ECCENTRICITY":0.0001822,"INCLINATION":87.906,"RA_OF_ASC_NODE":317.4347,"ARG_OF_PERICENTER":86.7991,"MEAN_ANOMALY":273.3348,"EPHEMERIS_TYPE":0,"CLASSIFICATION_TYPE":"U","NORAD_CAT_ID":48793,"ELEMENT_SET_NO":999,"REV_AT_EPOCH":20597,"BSTAR":0.00021213926,"MEAN_MOTION_DOT":9.3e-7,"MEAN_MOTION_DDOT":0},{"OBJECT_NAME":"ONEWEB-0224","OBJECT_ID":"2021-045AD","EPOCH":"2025-08-29T06:11:57.281568","MEAN_MOTION":13.15547999,"ECCENTRICITY":0.00010777,"INCLINATION":87.9056,"RA_OF_ASC_NODE":317.4778,"ARG_OF_PERICENTER":122.0389,"MEAN_ANOMALY":238.0846,"EPHEMERIS_TYPE":0,"CLASSIFICATION_TYPE":"U","NORAD_CAT_ID":48794,"ELEMENT_SET_NO":999,"REV_AT_EPOCH":20589,"BSTAR":7.6153568e-5,"MEAN_MOTION_DOT":4.1e-7,"MEAN_MOTION_DDOT":0},{"OBJECT_NAME":"ONEWEB-0233","OBJECT_ID":"2021-045AE","EPOCH":"2025-08-29T06:18:35.424864","MEAN_MOTION":13.15547412,"ECCENTRICITY":0.00015756,"INCLINATION":87.906,"RA_OF_ASC_NODE":317.4874,"ARG_OF_PERICENTER":93.8843,"MEAN_ANOMALY":266.2467,"EPHEMERIS_TYPE":0,"CLASSIFICATION_TYPE":"U","NORAD_CAT_ID":48795,"ELEMENT_SET_NO":999,"REV_AT_EPOCH":20591,"BSTAR":0.0002155551,"MEAN_MOTION_DOT":9.4e-7,"MEAN_MOTION_DDOT":0},{"OBJECT_NAME":"ONEWEB-0190","OBJECT_ID":"2021-045AF","EPOCH":"2025-08-29T06:00:33.232032","MEAN_MOTION":13.15549622,"ECCENTRICITY":0.00014787,"INCLINATION":87.9058,"RA_OF_ASC_NODE":317.4533,"ARG_OF_PERICENTER":74.0009,"MEAN_ANOMALY":286.1284,"EPHEMERIS_TYPE":0,"CLASSIFICATION_TYPE":"U","NORAD_CAT_ID":48796,"ELEMENT_SET_NO":999,"REV_AT_EPOCH":20598,"BSTAR":-4.4076041e-5,"MEAN_MOTION_DOT":-4.0e-8,"MEAN_MOTION_DDOT":0},{"OBJECT_NAME":"ONEWEB-0236","OBJECT_ID":"2021-045AG","EPOCH":"2025-08-29T06:25:39.453600","MEAN_MOTION":13.15548583,"ECCENTRICITY":0.00018992,"INCLINATION":87.9059,"RA_OF_ASC_NODE":317.4606,"ARG_OF_PERICENTER":102.947,"MEAN_ANOMALY":257.1872,"EPHEMERIS_TYPE":0,"CLASSIFICATION_TYPE":"U","NORAD_CAT_ID":48797,"ELEMENT_SET_NO":999,"REV_AT_EPOCH":20587,"BSTAR":0.00023520306,"MEAN_MOTION_DOT":1.01e-6,"MEAN_MOTION_DDOT":0},{"OBJECT_NAME":"ONEWEB-0248","OBJECT_ID":"2021-045AH","EPOCH":"2025-08-29T06:43:54.100128","MEAN_MOTION":13.15548698,"ECCENTRICITY":0.00012167,"INCLINATION":87.9066,"RA_OF_ASC_NODE":317.4118,"ARG_OF_PERICENTER":95.7685,"MEAN_ANOMALY":264.3584,"EPHEMERIS_TYPE":0,"CLASSIFICATION_TYPE":"U","NORAD_CAT_ID":48798,"ELEMENT_SET_NO":999,"REV_AT_EPOCH":20603,"BSTAR":0.00061440113,"MEAN_MOTION_DOT":2.44e-6,"MEAN_MOTION_DDOT":0},{"OBJECT_NAME":"ONEWEB-0225","OBJECT_ID":"2021-045AJ","EPOCH":"2025-08-29T05:26:19.721760","MEAN_MOTION":13.15548506,"ECCENTRICITY":0.00015081,"INCLINATION":87.9064,"RA_OF_ASC_NODE":317.4538,"ARG_OF_PERICENTER":79.8625,"MEAN_ANOMALY":280.2675,"EPHEMERIS_TYPE":0,"CLASSIFICATION_TYPE":"U","NORAD_CAT_ID":48799,"ELEMENT_SET_NO":999,"REV_AT_EPOCH":20603,"BSTAR":0.00019926276,"MEAN_MOTION_DOT":8.8e-7,"MEAN_MOTION_DDOT":0},{"OBJECT_NAME":"ONEWEB-0215","OBJECT_ID":"2021-045AK","EPOCH":"2025-08-29T06:32:28.903200","MEAN_MOTION":13.15546917,"ECCENTRICITY":0.00012819,"INCLINATION":87.9067,"RA_OF_ASC_NODE":317.3958,"ARG_OF_PERICENTER":84.0097,"MEAN_ANOMALY":276.1179,"EPHEMERIS_TYPE":0,"CLASSIFICATION_TYPE":"U","NORAD_CAT_ID":48800,"ELEMENT_SET_NO":999,"REV_AT_EPOCH":20591,"BSTAR":0.00051893118,"MEAN_MOTION_DOT":2.08e-6,"MEAN_MOTION_DDOT":0}]
