ONEWEB-0240             
1 48785U 21045U   25241.27493335  .00000204  00000+0  50860-3 0  9991
2 48785  87.9063 317.3960 0001526  97.4599 262.6705 13.15547097206023
ONEWEB-0246             
1 48786U 21045V   25241.26939459  .00000159  00000+0  38944-3 0  9991
2 48786  87.9066 317.4095 0001892  93.0179 267.1168 13.15547819205898
ONEWEB-0210             
1 48787U 21045W   25241.24404063 -.00000033  00000+0 -12264-3 0  9998
2 48787  87.9065 317.4140 0001907  76.8620 283.2723 13.15547630205938
ONEWEB-0214             
1 48788U 21045X   25241.25274420 -.00000135  00000+0 -39161-3 0  9990
2 48788  87.9061 317.4001 0002005  84.6699 275.4660 13.15550760205902
ONEWEB-0221             
1 48789U 21045Y   25241.25989353  .00000063  00000+0  13210-3 0  9994
2 48789  87.9054 317.4256 0001741  92.8178 267.3152 13.15549324205995
ONEWEB-0213             
1 48790U 21045Z   25241.24879753 -.00000021  00000+0 -89678-4 0  9995
2 48790  87.9055 317.4361 0001781  90.0551 270.0783 13.15547836206059
ONEWEB-0212             
1 48791U 21045AA  25241.22581851  .00000105  00000+0  24475-3 0  9997
2 48791  87.9061 317.4227 0001881  99.1527 260.9816 13.15548109206040
ONEWEB-0227             
1 48792U 21045AB  25241.22502440  .00000051  00000+0  10201-3 0  9997
2 48792  87.9054 317.4422 0001766  95.4501 264.6831 13.15547923205997
ONEWEB-0226             
1 48793U 21045AC  25241.29474499  .00000093  00000+0  21214-3 0  9999
2 48793  87.9060 317.4347 0001822  86.7991 273.3348 13.15547747205972
ONEWEB-0224             
1 48794U 21045AD  25241.25830187  .00000041  00000+0  76154-4 0  9993
2 48794  87.9056 317.4778 0001077 122.0389 238.0846 13.15547999205894
ONEWEB-0233             
1 48795U 21045AE  25241.26291001  .00000094  00000+0  21556-3 0  9994
2 48795  87.9060 317.4874 0001575  93.8843 266.2467 13.15547412205915
ONEWEB-0190             
1 48796U 21045AF  25241.25038463 -.00000004  00000+0 -44076-4 0  9991
2 48796  87.9058 317.4533 0001478  74.0009 286.1284 13.15549622205982
ONEWEB-0236             
1 48797U 21045AG  25241.26781775  .00000101  00000+0  23520-3 0  9990
2 48797  87.9059 317.4606 0001899 102.9470 257.1872 13.15548583205879
ONEWEB-0248             
1 48798U 21045AH  25241.28048727  .00000244  00000+0  61440-3 0  9997
2 48798  87.9066 317.4118 0001216  95.7685 264.3584 13.15548698206032
ONEWEB-0225             
1 48799U 21045AJ  25241.22661715  .00000088  00000+0  19926-3 0  9998
2 48799  87.9064 317.4538 0001508  79.8625 280.2675 13.15548506206034
ONEWEB-0215             
1 48800U 21045AK  25241.27255675  .00000208  00000+0  51893-3 0  9993
2 48800  87.9067 317.3958 0001281  84.0097 276.1179 13.15546917205917
